HULIANWANG DIGUI-124    
1 67064U 25295F   26199.23912819 -.00000088  00000+0  77774-4 0  9990
2 67064  49.9996 273.9730 0001119 202.7994 157.2829 13.29329390 29632
HULIANWANG DIGUI-125    
1 67065U 25295G   26199.23070744 -.00000088  00000+0  76618-4 0  9999
2 67065  49.9988 273.9127 0001092 201.6185 158.4641 13.29330048 29631
HULIANWANG DIGUI-126    
1 67066U 25295H   26199.22233162 -.00000095  00000+0  61807-4 0  9996
2 67066  49.9991 273.8735 0001142 198.0977 161.9854 13.29322919 29637
HULIANWANG DIGUI-127    
1 67067U 25295J   26199.21391649 -.00000093  00000+0  66703-4 0  9999
2 67067  50.0006 273.8645 0001135 202.0685 158.0138 13.29331078 29630
HULIANWANG DIGUI-128    
1 67236U 25311A   26199.16084781 -.00000119  00000+0  10370-4 0  9994
2 67236  50.0100   4.4714 0000927  85.0787 275.0191 13.29323826 27468
HULIANWANG DIGUI-129    
1 67237U 25311B   26198.86840864 -.00000123  00000+0  13383-5 0  9996
2 67237  50.0089   5.5742 0000873  85.6996 274.3976 13.29324997 27425
HULIANWANG DIGUI-130    
1 67238U 25311C   26198.91859038 -.00000101  00000+0  50251-4 0  9996
2 67238  50.0066   5.7957 0000949  85.2099 274.8882 13.29323723 27422
HULIANWANG DIGUI-131    
1 67239U 25311D   26199.15249562 -.00000115  00000+0  19587-4 0  9991
2 67239  50.0066   5.0227 0000975  84.0545 276.0438 13.29323485 27457
HULIANWANG DIGUI-132    
1 67240U 25311E   26198.90186210 -.00000101  00000+0  50423-4 0  9994
2 67240  50.0076   5.7228 0000927  80.5294 279.5683 13.29324281 27429
HULIANWANG DIGUI-133    
1 67241U 25311F   26198.88518242 -.00000112  00000+0  26728-4 0  9999
2 67241  50.0121   5.7117 0000902  83.5378 276.5597 13.29324230 27422
HULIANWANG DIGUI-134    
1 67242U 25311G   26198.89350397 -.00000112  00000+0  26717-4 0  9994
2 67242  50.0049   5.6376 0000923  82.8760 277.2217 13.29323939 27420
HULIANWANG DIGUI-135    
1 67243U 25311H   26198.91021516 -.00000107  00000+0  36299-4 0  9996
2 67243  50.0034   5.6996 0000954  79.5216 280.5763 13.29323683 27425
HULIANWANG DIGUI-136    
1 67244U 25311J   26199.17750331 -.00000117  00000+0  15593-4 0  9995
2 67244  50.0109   4.5698 0000865  86.2638 273.8333 13.29324654 27461
HULIANWANG DIGUI-137    
1 67435U 26007A   26199.05462722 -.00000101  00000+0  48731-4 0  9994
2 67435  50.0098 335.1526 0000899 123.0026 237.0933 13.29327044 24899
HULIANWANG DIGUI-138    
1 67436U 26007B   26199.07136874 -.00000103  00000+0  44841-4 0  9993
2 67436  50.0078 335.2081 0000887 124.8557 235.2399 13.29325452 24897
HULIANWANG DIGUI-139    
1 67437U 26007C   26198.76212103 -.00000104  00000+0  44076-4 0  9990
2 67437  50.0048 336.1977 0000870 110.9270 249.1695 13.29328360 24859
