{"fetched_at":"2026-07-18T17:29:57.623Z","source":"https://celestrak.org/NORAD/elements/gp.php?NAME=HULIANWANG&FORMAT=JSON","constellation":"guowang","records":[{"OBJECT_NAME":"HULIANWANG DIGUI-124","OBJECT_ID":"2025-295F","EPOCH":"2026-07-18T05:44:20.675616","CLASSIFICATION_TYPE":"U","MEAN_MOTION":13.2932939,"ECCENTRICITY":0.00011199,"INCLINATION":49.9996,"RA_OF_ASC_NODE":273.973,"ARG_OF_PERICENTER":202.7994,"MEAN_ANOMALY":157.2829,"EPHEMERIS_TYPE":0,"NORAD_CAT_ID":67064,"ELEMENT_SET_NO":999,"REV_AT_EPOCH":2963,"BSTAR":0.000077774037,"MEAN_MOTION_DOT":-8.8e-7,"MEAN_MOTION_DDOT":0},{"OBJECT_NAME":"HULIANWANG DIGUI-125","OBJECT_ID":"2025-295G","EPOCH":"2026-07-18T05:32:13.122816","CLASSIFICATION_TYPE":"U","MEAN_MOTION":13.29330048,"ECCENTRICITY":0.00010929,"INCLINATION":49.9988,"RA_OF_ASC_NODE":273.9127,"ARG_OF_PERICENTER":201.6185,"MEAN_ANOMALY":158.4641,"EPHEMERIS_TYPE":0,"NORAD_CAT_ID":67065,"ELEMENT_SET_NO":999,"REV_AT_EPOCH":2963,"BSTAR":0.000076617927,"MEAN_MOTION_DOT":-8.8e-7,"MEAN_MOTION_DDOT":0},{"OBJECT_NAME":"HULIANWANG DIGUI-126","OBJECT_ID":"2025-295H","EPOCH":"2026-07-18T05:20:09.451968","CLASSIFICATION_TYPE":"U","MEAN_MOTION":13.29322919,"ECCENTRICITY":0.00011421,"INCLINATION":49.9991,"RA_OF_ASC_NODE":273.8735,"ARG_OF_PERICENTER":198.0977,"MEAN_ANOMALY":161.9854,"EPHEMERIS_TYPE":0,"NORAD_CAT_ID":67066,"ELEMENT_SET_NO":999,"REV_AT_EPOCH":2963,"BSTAR":0.000061806655,"MEAN_MOTION_DOT":-9.5e-7,"MEAN_MOTION_DDOT":0},{"OBJECT_NAME":"HULIANWANG DIGUI-127","OBJECT_ID":"2025-295J","EPOCH":"2026-07-18T05:08:02.384736","CLASSIFICATION_TYPE":"U","MEAN_MOTION":13.29331078,"ECCENTRICITY":0.00011356,"INCLINATION":50.0006,"RA_OF_ASC_NODE":273.8645,"ARG_OF_PERICENTER":202.0685,"MEAN_ANOMALY":158.0138,"EPHEMERIS_TYPE":0,"NORAD_CAT_ID":67067,"ELEMENT_SET_NO":999,"REV_AT_EPOCH":2963,"BSTAR":0.000066703066,"MEAN_MOTION_DOT":-9.3e-7,"MEAN_MOTION_DDOT":0},{"OBJECT_NAME":"HULIANWANG DIGUI-128","OBJECT_ID":"2025-311A","EPOCH":"2026-07-18T03:51:37.250784","CLASSIFICATION_TYPE":"U","MEAN_MOTION":13.29323826,"ECCENTRICITY":0.00009275,"INCLINATION":50.01,"RA_OF_ASC_NODE":4.4714,"ARG_OF_PERICENTER":85.0787,"MEAN_ANOMALY":275.0191,"EPHEMERIS_TYPE":0,"NORAD_CAT_ID":67236,"ELEMENT_SET_NO":999,"REV_AT_EPOCH":2746,"BSTAR":0.000010369761,"MEAN_MOTION_DOT":-0.00000119,"MEAN_MOTION_DDOT":0},{"OBJECT_NAME":"HULIANWANG DIGUI-129","OBJECT_ID":"2025-311B","EPOCH":"2026-07-17T20:50:30.506496","CLASSIFICATION_TYPE":"U","MEAN_MOTION":13.29324997,"ECCENTRICITY":0.00008739,"INCLINATION":50.0089,"RA_OF_ASC_NODE":5.5742,"ARG_OF_PERICENTER":85.6996,"MEAN_ANOMALY":274.3976,"EPHEMERIS_TYPE":0,"NORAD_CAT_ID":67237,"ELEMENT_SET_NO":999,"REV_AT_EPOCH":2742,"BSTAR":0.000001338261,"MEAN_MOTION_DOT":-0.00000123,"MEAN_MOTION_DDOT":0},{"OBJECT_NAME":"HULIANWANG DIGUI-130","OBJECT_ID":"2025-311C","EPOCH":"2026-07-17T22:02:46.208832","CLASSIFICATION_TYPE":"U","MEAN_MOTION":13.29323723,"ECCENTRICITY":0.00009496,"INCLINATION":50.0066,"RA_OF_ASC_NODE":5.7957,"ARG_OF_PERICENTER":85.2099,"MEAN_ANOMALY":274.8882,"EPHEMERIS_TYPE":0,"NORAD_CAT_ID":67238,"ELEMENT_SET_NO":999,"REV_AT_EPOCH":2742,"BSTAR":0.000050251377,"MEAN_MOTION_DOT":-0.00000101,"MEAN_MOTION_DDOT":0},{"OBJECT_NAME":"HULIANWANG DIGUI-131","OBJECT_ID":"2025-311D","EPOCH":"2026-07-18T03:39:35.621568","CLASSIFICATION_TYPE":"U","MEAN_MOTION":13.29323485,"ECCENTRICITY":0.0000975,"INCLINATION":50.0066,"RA_OF_ASC_NODE":5.0227,"ARG_OF_PERICENTER":84.0545,"MEAN_ANOMALY":276.0438,"EPHEMERIS_TYPE":0,"NORAD_CAT_ID":67239,"ELEMENT_SET_NO":999,"REV_AT_EPOCH":2745,"BSTAR":0.000019586675,"MEAN_MOTION_DOT":-0.00000115,"MEAN_MOTION_DDOT":0},{"OBJECT_NAME":"HULIANWANG DIGUI-132","OBJECT_ID":"2025-311E","EPOCH":"2026-07-17T21:38:40.885440","CLASSIFICATION_TYPE":"U","MEAN_MOTION":13.29324281,"ECCENTRICITY":0.00009277,"INCLINATION":50.0076,"RA_OF_ASC_NODE":5.7228,"ARG_OF_PERICENTER":80.5294,"MEAN_ANOMALY":279.5683,"EPHEMERIS_TYPE":0,"NORAD_CAT_ID":67240,"ELEMENT_SET_NO":999,"REV_AT_EPOCH":2742,"BSTAR":0.000050423363,"MEAN_MOTION_DOT":-0.00000101,"MEAN_MOTION_DDOT":0},{"OBJECT_NAME":"HULIANWANG DIGUI-133","OBJECT_ID":"2025-311F","EPOCH":"2026-07-17T21:14:39.761088","CLASSIFICATION_TYPE":"U","MEAN_MOTION":13.2932423,"ECCENTRICITY":0.00009025,"INCLINATION":50.0121,"RA_OF_ASC_NODE":5.7117,"ARG_OF_PERICENTER":83.5378,"MEAN_ANOMALY":276.5597,"EPHEMERIS_TYPE":0,"NORAD_CAT_ID":67241,"ELEMENT_SET_NO":999,"REV_AT_EPOCH":2742,"BSTAR":0.000026728385,"MEAN_MOTION_DOT":-0.00000112,"MEAN_MOTION_DDOT":0},{"OBJECT_NAME":"HULIANWANG DIGUI-134","OBJECT_ID":"2025-311G","EPOCH":"2026-07-17T21:26:38.743008","CLASSIFICATION_TYPE":"U","MEAN_MOTION":13.29323939,"ECCENTRICITY":0.00009237,"INCLINATION":50.0049,"RA_OF_ASC_NODE":5.6376,"ARG_OF_PERICENTER":82.876,"MEAN_ANOMALY":277.2217,"EPHEMERIS_TYPE":0,"NORAD_CAT_ID":67242,"ELEMENT_SET_NO":999,"REV_AT_EPOCH":2742,"BSTAR":0.00002671718,"MEAN_MOTION_DOT":-0.00000112,"MEAN_MOTION_DDOT":0},{"OBJECT_NAME":"HULIANWANG DIGUI-135","OBJECT_ID":"2025-311H","EPOCH":"2026-07-17T21:50:42.589824","CLASSIFICATION_TYPE":"U","MEAN_MOTION":13.29323683,"ECCENTRICITY":0.00009549,"INCLINATION":50.0034,"RA_OF_ASC_NODE":5.6996,"ARG_OF_PERICENTER":79.5216,"MEAN_ANOMALY":280.5763,"EPHEMERIS_TYPE":0,"NORAD_CAT_ID":67243,"ELEMENT_SET_NO":999,"REV_AT_EPOCH":2742,"BSTAR":0.000036298544,"MEAN_MOTION_DOT":-0.00000107,"MEAN_MOTION_DDOT":0},{"OBJECT_NAME":"HULIANWANG DIGUI-136","OBJECT_ID":"2025-311J","EPOCH":"2026-07-18T04:15:36.285984","CLASSIFICATION_TYPE":"U","MEAN_MOTION":13.29324654,"ECCENTRICITY":0.00008652,"INCLINATION":50.0109,"RA_OF_ASC_NODE":4.5698,"ARG_OF_PERICENTER":86.2638,"MEAN_ANOMALY":273.8333,"EPHEMERIS_TYPE":0,"NORAD_CAT_ID":67244,"ELEMENT_SET_NO":999,"REV_AT_EPOCH":2746,"BSTAR":0.000015592631,"MEAN_MOTION_DOT":-0.00000117,"MEAN_MOTION_DDOT":0},{"OBJECT_NAME":"HULIANWANG DIGUI-137","OBJECT_ID":"2026-007A","EPOCH":"2026-07-18T01:18:39.791808","CLASSIFICATION_TYPE":"U","MEAN_MOTION":13.29327044,"ECCENTRICITY":0.00008999,"INCLINATION":50.0098,"RA_OF_ASC_NODE":335.1526,"ARG_OF_PERICENTER":123.0026,"MEAN_ANOMALY":237.0933,"EPHEMERIS_TYPE":0,"NORAD_CAT_ID":67435,"ELEMENT_SET_NO":999,"REV_AT_EPOCH":2489,"BSTAR":0.000048731458,"MEAN_MOTION_DOT":-0.00000101,"MEAN_MOTION_DDOT":0},{"OBJECT_NAME":"HULIANWANG DIGUI-138","OBJECT_ID":"2026-007B","EPOCH":"2026-07-18T01:42:46.259136","CLASSIFICATION_TYPE":"U","MEAN_MOTION":13.29325452,"ECCENTRICITY":0.00008879,"INCLINATION":50.0078,"RA_OF_ASC_NODE":335.2081,"ARG_OF_PERICENTER":124.8557,"MEAN_ANOMALY":235.2399,"EPHEMERIS_TYPE":0,"NORAD_CAT_ID":67436,"ELEMENT_SET_NO":999,"REV_AT_EPOCH":2489,"BSTAR":0.00004484118,"MEAN_MOTION_DOT":-0.00000103,"MEAN_MOTION_DDOT":0},{"OBJECT_NAME":"HULIANWANG DIGUI-139","OBJECT_ID":"2026-007C","EPOCH":"2026-07-17T18:17:27.256992","CLASSIFICATION_TYPE":"U","MEAN_MOTION":13.2932836,"ECCENTRICITY":0.00008701,"INCLINATION":50.0048,"RA_OF_ASC_NODE":336.1977,"ARG_OF_PERICENTER":110.927,"MEAN_ANOMALY":249.1695,"EPHEMERIS_TYPE":0,"NORAD_CAT_ID":67437,"ELEMENT_SET_NO":999,"REV_AT_EPOCH":2485,"BSTAR":0.000044075596,"MEAN_MOTION_DOT":-0.00000104,"MEAN_MOTION_DDOT":0}]}
